start=new Date('2022-04-03T00:00:00.000Z').valueOf();
sats=[{"OBJECT_TYPE":"PAYLOAD","ARG_OF_PERICENTER":"121.5739","NORAD_CAT_ID":"51977","EPOCH":"2022-04-02T22:00:01.999584","MEAN_MOTION_DOT":"-0.00136199","ELEMENT_SET_NO":"999","COUNTRY_CODE":"US","INCLINATION":"53.2185","LAUNCH_DATE":"2022-03-09","FILE":"3385473","GP_ID":"200326665","CENTER_NAME":"EARTH","SITE":"AFETR","MEAN_ANOMALY":"129.5387","REF_FRAME":"TEME","APOAPSIS":"350.383","CLASSIFICATION_TYPE":"U","RA_OF_ASC_NODE":"18.5238","OBJECT_ID":"2022-025X","TLE_LINE1":"1 51977U 22025X   22092.91668981 -.00136199  00000-0 -97787-3 0  9995","OBJECT_NAME":"STARLINK-3660","PERIOD":"91.528","PERIAPSIS":"348.607","EPHEMERIS_TYPE":"0","MEAN_MOTION":"15.73292998","DECAY_DATE":null,"ECCENTRICITY":"0.00013200","SEMIMAJOR_AXIS":"6727.630","TIME_SYSTEM":"UTC","MEAN_MOTION_DDOT":"0.0000000000000","REV_AT_EPOCH":"372","TLE_LINE2":"2 51977  53.2185  18.5238 0001320 121.5739 129.5387 15.73292998  3728","RCS_SIZE":"LARGE","BSTAR":"-0.00097787000000","MEAN_ELEMENT_THEORY":"SGP4"},{"REV_AT_EPOCH":"371","TLE_LINE2":"2 51978  53.2177  19.2142 0001124 117.1611 151.1662 15.73023544  3719","BSTAR":"-0.00568530000000","RCS_SIZE":"LARGE","MEAN_ELEMENT_THEORY":"SGP4","MEAN_MOTION_DDOT":"0.0000000000000","TIME_SYSTEM":"UTC","DECAY_DATE":null,"ECCENTRICITY":"0.00011240","SEMIMAJOR_AXIS":"6728.398","EPHEMERIS_TYPE":"0","MEAN_MOTION":"15.73023544","OBJECT_NAME":"STARLINK-3666","PERIOD":"91.543","PERIAPSIS":"349.507","OBJECT_ID":"2022-025Y","TLE_LINE1":"1 51978U 22025Y   22092.91668981 -.00727339  00000-0 -56853-2 0  9996","APOAPSIS":"351.020","CLASSIFICATION_TYPE":"U","RA_OF_ASC_NODE":"19.2142","SITE":"AFETR","REF_FRAME":"TEME","MEAN_ANOMALY":"151.1662","GP_ID":"200325949","FILE":"3385473","CENTER_NAME":"EARTH","ELEMENT_SET_NO":"999","INCLINATION":"53.2177","COUNTRY_CODE":"US","LAUNCH_DATE":"2022-03-09","NORAD_CAT_ID":"51978","EPOCH":"2022-04-02T22:00:01.999584","MEAN_MOTION_DOT":"-0.00727339","OBJECT_TYPE":"PAYLOAD","ARG_OF_PERICENTER":"117.1611"},{"SITE":"AFETR","MEAN_ANOMALY":"164.7497","REF_FRAME":"TEME","APOAPSIS":"352.489","CLASSIFICATION_TYPE":"U","RA_OF_ASC_NODE":"19.2224","FILE":"3385473","GP_ID":"200326153","CENTER_NAME":"EARTH","NORAD_CAT_ID":"51979","EPOCH":"2022-04-02T22:00:01.999584","MEAN_MOTION_DOT":"-0.00719550","ELEMENT_SET_NO":"999","INCLINATION":"53.2177","COUNTRY_CODE":"US","LAUNCH_DATE":"2022-03-09","OBJECT_TYPE":"PAYLOAD","ARG_OF_PERICENTER":"98.5918","REV_AT_EPOCH":"371","TLE_LINE2":"2 51979  53.2177  19.2224 0001167  98.5918 164.7497 15.72518710  3719","RCS_SIZE":"LARGE","BSTAR":"-0.00574230000000","MEAN_ELEMENT_THEORY":"SGP4","TIME_SYSTEM":"UTC","MEAN_MOTION_DDOT":"0.0000000000000","MEAN_MOTION":"15.72518710","EPHEMERIS_TYPE":"0","DECAY_DATE":null,"ECCENTRICITY":"0.00011670","SEMIMAJOR_AXIS":"6729.838","OBJECT_ID":"2022-025Z","TLE_LINE1":"1 51979U 22025Z   22092.91668981 -.00719550  00000-0 -57423-2 0  9997","OBJECT_NAME":"STARLINK-3656","PERIAPSIS":"350.918","PERIOD":"91.573"},{"GP_ID":"200326051","FILE":"3385473","CENTER_NAME":"EARTH","SITE":"AFETR","MEAN_ANOMALY":"164.0973","REF_FRAME":"TEME","APOAPSIS":"351.264","CLASSIFICATION_TYPE":"U","RA_OF_ASC_NODE":"19.2127","OBJECT_TYPE":"PAYLOAD","ARG_OF_PERICENTER":"105.7295","NORAD_CAT_ID":"51980","EPOCH":"2022-04-02T22:00:01.999584","MEAN_MOTION_DOT":"-0.00201271","ELEMENT_SET_NO":"999","COUNTRY_CODE":"US","INCLINATION":"53.2178","LAUNCH_DATE":"2022-03-09","TIME_SYSTEM":"UTC","MEAN_MOTION_DDOT":"0.0000000000000","REV_AT_EPOCH":"371","TLE_LINE2":"2 51980  53.2178  19.2127 0001013 105.7295 164.0973 15.72911595  3713","MEAN_ELEMENT_THEORY":"SGP4","RCS_SIZE":"LARGE","BSTAR":"-0.00148250000000","OBJECT_ID":"2022-025AA","TLE_LINE1":"1 51980U 22025AA  22092.91668981 -.00201271  00000-0 -14825-2 0  9994","OBJECT_NAME":"STARLINK-3649","PERIAPSIS":"349.901","PERIOD":"91.550","MEAN_MOTION":"15.72911595","EPHEMERIS_TYPE":"0","DECAY_DATE":null,"ECCENTRICITY":"0.00010130","SEMIMAJOR_AXIS":"6728.718"},{"SITE":"AFETR","REF_FRAME":"TEME","MEAN_ANOMALY":"151.7092","APOAPSIS":"351.843","CLASSIFICATION_TYPE":"U","RA_OF_ASC_NODE":"19.2176","GP_ID":"200326578","FILE":"3385473","CENTER_NAME":"EARTH","NORAD_CAT_ID":"51981","EPOCH":"2022-04-02T22:00:01.999584","MEAN_MOTION_DOT":"-0.00719842","ELEMENT_SET_NO":"999","COUNTRY_CODE":"US","INCLINATION":"53.2177","LAUNCH_DATE":"2022-03-09","OBJECT_TYPE":"PAYLOAD","ARG_OF_PERICENTER":"114.5172","REV_AT_EPOCH":"371","TLE_LINE2":"2 51981  53.2177  19.2176 0001256 114.5172 151.7092 15.72766070  3719","RCS_SIZE":"LARGE","BSTAR":"-0.00568400000000","MEAN_ELEMENT_THEORY":"SGP4","TIME_SYSTEM":"UTC","MEAN_MOTION_DDOT":"0.0000000000000","EPHEMERIS_TYPE":"0","MEAN_MOTION":"15.72766070","DECAY_DATE":null,"ECCENTRICITY":"0.00012560","SEMIMAJOR_AXIS":"6729.133","OBJECT_ID":"2022-025AB","TLE_LINE1":"1 51981U 22025AB  22092.91668981 -.00719842  00000-0 -56840-2 0  9996","OBJECT_NAME":"STARLINK-3635","PERIAPSIS":"350.152","PERIOD":"91.558"},{"SEMIMAJOR_AXIS":"6728.787","ECCENTRICITY":"0.00011280","DECAY_DATE":null,"MEAN_MOTION":"15.72887278","EPHEMERIS_TYPE":"0","PERIOD":"91.551","PERIAPSIS":"349.893","OBJECT_NAME":"STARLINK-3650","TLE_LINE1":"1 51982U 22025AC  22092.91668981 -.00021348  00000-0 -15009-3 0  9997","OBJECT_ID":"2022-025AC","RCS_SIZE":"LARGE","BSTAR":"-0.00015009000000","MEAN_ELEMENT_THEORY":"SGP4","TLE_LINE2":"2 51982  53.2176  19.2119 0001128 100.1901 170.3453 15.72887278  3717","REV_AT_EPOCH":"371","MEAN_MOTION_DDOT":"0.0000000000000","TIME_SYSTEM":"UTC","LAUNCH_DATE":"2022-03-09","COUNTRY_CODE":"US","INCLINATION":"53.2176","ELEMENT_SET_NO":"999","MEAN_MOTION_DOT":"-0.00021348","EPOCH":"2022-04-02T22:00:01.999584","NORAD_CAT_ID":"51982","ARG_OF_PERICENTER":"100.1901","OBJECT_TYPE":"PAYLOAD","RA_OF_ASC_NODE":"19.2119","CLASSIFICATION_TYPE":"U","APOAPSIS":"351.411","MEAN_ANOMALY":"170.3453","REF_FRAME":"TEME","SITE":"AFETR","CENTER_NAME":"EARTH","FILE":"3385473","GP_ID":"200326270"},{"OBJECT_NAME":"STARLINK-3655","PERIOD":"91.551","PERIAPSIS":"349.866","OBJECT_ID":"2022-025AD","TLE_LINE1":"1 51983U 22025AD  22092.91668981 -.00719728  00000-0 -56531-2 0  9998","DECAY_DATE":null,"ECCENTRICITY":"0.00011580","SEMIMAJOR_AXIS":"6728.780","MEAN_MOTION":"15.72889583","EPHEMERIS_TYPE":"0","MEAN_MOTION_DDOT":"0.0000000000000","TIME_SYSTEM":"UTC","REV_AT_EPOCH":"371","TLE_LINE2":"2 51983  53.2177  19.2150 0001158  95.1430 172.4720 15.72889583  3718","RCS_SIZE":"LARGE","MEAN_ELEMENT_THEORY":"SGP4","BSTAR":"-0.00565310000000","OBJECT_TYPE":"PAYLOAD","ARG_OF_PERICENTER":"95.1430","ELEMENT_SET_NO":"999","INCLINATION":"53.2177","COUNTRY_CODE":"US","LAUNCH_DATE":"2022-03-09","NORAD_CAT_ID":"51983","EPOCH":"2022-04-02T22:00:01.999584","MEAN_MOTION_DOT":"-0.00719728","FILE":"3385473","GP_ID":"200326475","CENTER_NAME":"EARTH","APOAPSIS":"351.425","CLASSIFICATION_TYPE":"U","RA_OF_ASC_NODE":"19.2150","SITE":"AFETR","REF_FRAME":"TEME","MEAN_ANOMALY":"172.4720"},{"MEAN_MOTION_DDOT":"0.0000000000000","TIME_SYSTEM":"UTC","RCS_SIZE":"LARGE","MEAN_ELEMENT_THEORY":"SGP4","BSTAR":"-0.00601740000000","TLE_LINE2":"2 51984  53.2176  19.2018 0001188 100.5958 167.7912 15.71407643  3712","REV_AT_EPOCH":"371","PERIOD":"91.638","PERIAPSIS":"354.075","OBJECT_NAME":"STARLINK-3664","TLE_LINE1":"1 51984U 22025AE  22092.91668981 -.00719158  00000-0 -60174-2 0  9994","OBJECT_ID":"2022-025AE","SEMIMAJOR_AXIS":"6733.010","ECCENTRICITY":"0.00011880","DECAY_DATE":null,"EPHEMERIS_TYPE":"0","MEAN_MOTION":"15.71407643","CENTER_NAME":"EARTH","FILE":"3385473","GP_ID":"200326372","RA_OF_ASC_NODE":"19.2018","CLASSIFICATION_TYPE":"U","APOAPSIS":"355.675","MEAN_ANOMALY":"167.7912","REF_FRAME":"TEME","SITE":"AFETR","ARG_OF_PERICENTER":"100.5958","OBJECT_TYPE":"PAYLOAD","LAUNCH_DATE":"2022-03-09","COUNTRY_CODE":"US","INCLINATION":"53.2176","ELEMENT_SET_NO":"999","MEAN_MOTION_DOT":"-0.00719158","EPOCH":"2022-04-02T22:00:01.999584","NORAD_CAT_ID":"51984"},{"ECCENTRICITY":"0.00012210","DECAY_DATE":null,"SEMIMAJOR_AXIS":"6728.092","EPHEMERIS_TYPE":"0","MEAN_MOTION":"15.73130890","PERIOD":"91.537","PERIAPSIS":"349.136","OBJECT_NAME":"STARLINK-3651","OBJECT_ID":"2022-025AF","TLE_LINE1":"1 51985U 22025AF  22092.91668981 -.00695655  00000-0 -53918-2 0  9998","REV_AT_EPOCH":"371","BSTAR":"-0.00539180000000","RCS_SIZE":"LARGE","MEAN_ELEMENT_THEORY":"SGP4","TLE_LINE2":"2 51985  53.2177  19.2132 0001221 115.3420 153.6701 15.73130890  3716","MEAN_MOTION_DDOT":"0.0000000000000","TIME_SYSTEM":"UTC","INCLINATION":"53.2177","COUNTRY_CODE":"US","ELEMENT_SET_NO":"999","LAUNCH_DATE":"2022-03-09","NORAD_CAT_ID":"51985","MEAN_MOTION_DOT":"-0.00695655","EPOCH":"2022-04-02T22:00:01.999584","OBJECT_TYPE":"PAYLOAD","ARG_OF_PERICENTER":"115.3420","APOAPSIS":"350.779","RA_OF_ASC_NODE":"19.2132","CLASSIFICATION_TYPE":"U","SITE":"AFETR","MEAN_ANOMALY":"153.6701","REF_FRAME":"TEME","FILE":"3385473","GP_ID":"200326666","CENTER_NAME":"EARTH"},{"OBJECT_NAME":"STARLINK-3645","PERIAPSIS":"353.278","PERIOD":"91.623","OBJECT_ID":"2022-025AG","TLE_LINE1":"1 51986U 22025AG  22092.91668981 -.00719518  00000-0 -59554-2 0  9996","DECAY_DATE":null,"ECCENTRICITY":"0.00012870","SEMIMAJOR_AXIS":"6732.279","EPHEMERIS_TYPE":"0","MEAN_MOTION":"15.71663466","MEAN_MOTION_DDOT":"0.0000000000000","TIME_SYSTEM":"UTC","REV_AT_EPOCH":"371","TLE_LINE2":"2 51986  53.2176  19.2008 0001287 118.4240 152.2468 15.71663466  3717","RCS_SIZE":"LARGE","BSTAR":"-0.00595540000000","MEAN_ELEMENT_THEORY":"SGP4","OBJECT_TYPE":"PAYLOAD","ARG_OF_PERICENTER":"118.4240","ELEMENT_SET_NO":"999","INCLINATION":"53.2176","COUNTRY_CODE":"US","LAUNCH_DATE":"2022-03-09","NORAD_CAT_ID":"51986","EPOCH":"2022-04-02T22:00:01.999584","MEAN_MOTION_DOT":"-0.00719518","GP_ID":"200325950","FILE":"3385473","CENTER_NAME":"EARTH","APOAPSIS":"355.011","CLASSIFICATION_TYPE":"U","RA_OF_ASC_NODE":"19.2008","SITE":"AFETR","MEAN_ANOMALY":"152.2468","REF_FRAME":"TEME"}];
